[{"OBJECT_NAME":"STARLINK-5058","OBJECT_ID":"2023-015H","EPOCH":"2026-03-09T02:32:22.301088","MEAN_MOTION":15.02731068,"ECCENTRICITY":6.189e-5,"INCLINATION":43.0045,"RA_OF_ASC_NODE":329.3796,"ARG_OF_PERICENTER":311.3387,"MEAN_ANOMALY":48.7402,"EPHEMERIS_TYPE":0,"CLASSIFICATION_TYPE":"U","NORAD_CAT_ID":55456,"ELEMENT_SET_NO":999,"REV_AT_EPOCH":17066,"BSTAR":0.0019281234,"MEAN_MOTION_DOT":0.00026074,"MEAN_MOTION_DDOT":0},{"OBJECT_NAME":"NOAA 17 DEB","OBJECT_ID":"2002-032AW","EPOCH":"2026-03-09T06:42:02.833344","MEAN_MOTION":15.0155296,"ECCENTRICITY":0.0036655,"INCLINATION":98.9692,"RA_OF_ASC_NODE":191.508,"ARG_OF_PERICENTER":264.8759,"MEAN_ANOMALY":94.8277,"EPHEMERIS_TYPE":0,"CLASSIFICATION_TYPE":"U","NORAD_CAT_ID":48713,"ELEMENT_SET_NO":999,"REV_AT_EPOCH":26502,"BSTAR":0.0031489084,"MEAN_MOTION_DOT":0.00041514,"MEAN_MOTION_DDOT":0}]
